[{"OBJECT_NAME":"STARLINK-31749","OBJECT_ID":"2024-082A","EPOCH":"2026-03-09T05:13:33.688128","MEAN_MOTION":15.27576194,"ECCENTRICITY":0.00013155,"INCLINATION":43.0051,"RA_OF_ASC_NODE":142.1439,"ARG_OF_PERICENTER":265.9053,"MEAN_ANOMALY":94.1648,"EPHEMERIS_TYPE":0,"CLASSIFICATION_TYPE":"U","NORAD_CAT_ID":59631,"ELEMENT_SET_NO":999,"REV_AT_EPOCH":10494,"BSTAR":-4.796618e-5,"MEAN_MOTION_DOT":-1.582e-5,"MEAN_MOTION_DDOT":0},{"OBJECT_NAME":"KIRARI (OICETS)","OBJECT_ID":"2005-031A","EPOCH":"2026-03-09T15:02:18.043872","MEAN_MOTION":15.22934858,"ECCENTRICITY":0.0019783,"INCLINATION":98.0768,"RA_OF_ASC_NODE":316.1697,"ARG_OF_PERICENTER":5.9068,"MEAN_ANOMALY":354.2396,"EPHEMERIS_TYPE":0,"CLASSIFICATION_TYPE":"U","NORAD_CAT_ID":28809,"ELEMENT_SET_NO":999,"REV_AT_EPOCH":12344,"BSTAR":0.00027776,"MEAN_MOTION_DOT":6.472e-5,"MEAN_MOTION_DDOT":0}]
